STARLINK-36641          
1 67589U 26018A   26040.91670139  .00016860  00000+0  88637-4 0  9996
2 67589  97.2805 105.2813 0001815  88.6135 174.7632 15.80803167  2870
STARLINK-36376          
1 67590U 26018B   26040.91670139 -.00046825  00000+0 -24487-3 0  9996
2 67590  97.2788 105.2828 0001625  75.5385 193.0395 15.80829121  2923
STARLINK-36391          
1 67591U 26018C   26040.91670139 -.00017415  00000+0 -90337-4 0  9998
2 67591  97.2792 105.2857 0001765  85.5242 189.2621 15.80819384  2928
STARLINK-36603          
1 67592U 26018D   26040.91670139 -.00016555  00000+0 -85866-4 0  9994
2 67592  97.2791 105.2874 0000897  69.1158 209.9149 15.80813765  2883
STARLINK-36634          
1 67593U 26018E   26040.91670139  .00058590  00000+0  30515-3 0  9998
2 67593  97.2789 105.2898 0001544  74.3335 211.2566 15.80773721  2877
STARLINK-36638          
1 67594U 26018F   26040.91670139 -.00018775  00000+0 -97488-4 0  9995
2 67594  97.2787 105.2923 0001167  93.6179 198.2674 15.80815870  2872
STARLINK-36628          
1 67595U 26018G   26040.91670139 -.00160084  00000+0 -84751-3 0  9995
2 67595  97.2785 105.2940 0001339  68.4572 228.0895 15.80890209  2874
STARLINK-36629          
1 67596U 26018H   26040.91670139 -.00341631  00000+0 -18357-2 0  9993
2 67596  97.2786 105.2967 0001716  90.3944 211.9049 15.81022423  2879
STARLINK-36384          
1 67597U 26018J   26040.91670139 -.00709683  00000+0 -39245-2 0  9998
2 67597  97.2786 105.2992 0001722  89.6956 218.6914 15.81305715  2939
STARLINK-36358          
1 67598U 26018K   26040.91670139 -.00944898  00000+0 -53168-2 0  9998
2 67598  97.2783 105.3003 0001566  90.2308 222.3360 15.81518733  2928
STARLINK-36582          
1 67599U 26018L   26040.91670139 -.01339892  00000+0 -75846-2 0  9999
2 67599  97.2786 105.3036 0001313  87.2332 231.8416 15.81896057  2982
STARLINK-36640          
1 67600U 26018M   26040.91670139 -.01768836  00000+0 -99121-2 0  9998
2 67600  97.2785 105.3079 0001443  75.0987 254.9364 15.82487959  2881
