CCSDS_OMM_VERS = 2.0
CREATION_DATE  = 
ORIGINATOR     = 

OBJECT_NAME    = STARLINK-36641
OBJECT_ID      = 2026-018A
CENTER_NAME    = EARTH
REF_FRAME      = TEME
TIME_SYSTEM    = UTC
MEAN_ELEMENT_THEORY = SGP/SGP4

EPOCH          = 2026-02-09T22:00:03.000096
MEAN_MOTION    = 15.80803167
ECCENTRICITY   = .00018156
INCLINATION    = 97.2805
RA_OF_ASC_NODE = 105.2813
ARG_OF_PERICENTER = 88.6135
MEAN_ANOMALY   = 174.7632

EPHEMERIS_TYPE = 0
CLASSIFICATION_TYPE = U
NORAD_CAT_ID   = 67589
ELEMENT_SET_NO = 999
REV_AT_EPOCH   = 287
BSTAR          = .88636677E-4
MEAN_MOTION_DOT = .1686E-3
MEAN_MOTION_DDOT = 0

CCSDS_OMM_VERS = 2.0
CREATION_DATE  = 
ORIGINATOR     = 

OBJECT_NAME    = STARLINK-36376
OBJECT_ID      = 2026-018B
CENTER_NAME    = EARTH
REF_FRAME      = TEME
TIME_SYSTEM    = UTC
MEAN_ELEMENT_THEORY = SGP/SGP4

EPOCH          = 2026-02-09T22:00:03.000096
MEAN_MOTION    = 15.80829121
ECCENTRICITY   = .00016254
INCLINATION    = 97.2788
RA_OF_ASC_NODE = 105.2828
ARG_OF_PERICENTER = 75.5385
MEAN_ANOMALY   = 193.0395

EPHEMERIS_TYPE = 0
CLASSIFICATION_TYPE = U
NORAD_CAT_ID   = 67590
ELEMENT_SET_NO = 999
REV_AT_EPOCH   = 292
BSTAR          = -.2448698E-3
MEAN_MOTION_DOT = -.46825E-3
MEAN_MOTION_DDOT = 0

CCSDS_OMM_VERS = 2.0
CREATION_DATE  = 
ORIGINATOR     = 

OBJECT_NAME    = STARLINK-36391
OBJECT_ID      = 2026-018C
CENTER_NAME    = EARTH
REF_FRAME      = TEME
TIME_SYSTEM    = UTC
MEAN_ELEMENT_THEORY = SGP/SGP4

EPOCH          = 2026-02-09T22:00:03.000096
MEAN_MOTION    = 15.80819384
ECCENTRICITY   = .00017651
INCLINATION    = 97.2792
RA_OF_ASC_NODE = 105.2857
ARG_OF_PERICENTER = 85.5242
MEAN_ANOMALY   = 189.2621

EPHEMERIS_TYPE = 0
CLASSIFICATION_TYPE = U
NORAD_CAT_ID   = 67591
ELEMENT_SET_NO = 999
REV_AT_EPOCH   = 292
BSTAR          = -.90336541E-4
MEAN_MOTION_DOT = -.17415E-3
MEAN_MOTION_DDOT = 0

CCSDS_OMM_VERS = 2.0
CREATION_DATE  = 
ORIGINATOR     = 

OBJECT_NAME    = STARLINK-36603
OBJECT_ID      = 2026-018D
CENTER_NAME    = EARTH
REF_FRAME      = TEME
TIME_SYSTEM    = UTC
MEAN_ELEMENT_THEORY = SGP/SGP4

EPOCH          = 2026-02-09T22:00:03.000096
MEAN_MOTION    = 15.80813765
ECCENTRICITY   = .00008972
INCLINATION    = 97.2791
RA_OF_ASC_NODE = 105.2874
ARG_OF_PERICENTER = 69.1158
MEAN_ANOMALY   = 209.9149

EPHEMERIS_TYPE = 0
CLASSIFICATION_TYPE = U
NORAD_CAT_ID   = 67592
ELEMENT_SET_NO = 999
REV_AT_EPOCH   = 288
BSTAR          = -.85865544E-4
MEAN_MOTION_DOT = -.16555E-3
MEAN_MOTION_DDOT = 0

CCSDS_OMM_VERS = 2.0
CREATION_DATE  = 
ORIGINATOR     = 

OBJECT_NAME    = STARLINK-36634
OBJECT_ID      = 2026-018E
CENTER_NAME    = EARTH
REF_FRAME      = TEME
TIME_SYSTEM    = UTC
MEAN_ELEMENT_THEORY = SGP/SGP4

EPOCH          = 2026-02-09T22:00:03.000096
MEAN_MOTION    = 15.80773721
ECCENTRICITY   = .0001544
INCLINATION    = 97.2789
RA_OF_ASC_NODE = 105.2898
ARG_OF_PERICENTER = 74.3335
MEAN_ANOMALY   = 211.2566

EPHEMERIS_TYPE = 0
CLASSIFICATION_TYPE = U
NORAD_CAT_ID   = 67593
ELEMENT_SET_NO = 999
REV_AT_EPOCH   = 287
BSTAR          = .30515295E-3
MEAN_MOTION_DOT = .5859E-3
MEAN_MOTION_DDOT = 0

CCSDS_OMM_VERS = 2.0
CREATION_DATE  = 
ORIGINATOR     = 

OBJECT_NAME    = STARLINK-36638
OBJECT_ID      = 2026-018F
CENTER_NAME    = EARTH
REF_FRAME      = TEME
TIME_SYSTEM    = UTC
MEAN_ELEMENT_THEORY = SGP/SGP4

EPOCH          = 2026-02-09T22:00:03.000096
MEAN_MOTION    = 15.80815870
ECCENTRICITY   = .00011671
INCLINATION    = 97.2787
RA_OF_ASC_NODE = 105.2923
ARG_OF_PERICENTER = 93.6179
MEAN_ANOMALY   = 198.2674

EPHEMERIS_TYPE = 0
CLASSIFICATION_TYPE = U
NORAD_CAT_ID   = 67594
ELEMENT_SET_NO = 999
REV_AT_EPOCH   = 287
BSTAR          = -.97488001E-4
MEAN_MOTION_DOT = -.18775E-3
MEAN_MOTION_DDOT = 0

CCSDS_OMM_VERS = 2.0
CREATION_DATE  = 
ORIGINATOR     = 

OBJECT_NAME    = STARLINK-36628
OBJECT_ID      = 2026-018G
CENTER_NAME    = EARTH
REF_FRAME      = TEME
TIME_SYSTEM    = UTC
MEAN_ELEMENT_THEORY = SGP/SGP4

EPOCH          = 2026-02-09T22:00:03.000096
MEAN_MOTION    = 15.80890209
ECCENTRICITY   = .00013399
INCLINATION    = 97.2785
RA_OF_ASC_NODE = 105.2940
ARG_OF_PERICENTER = 68.4572
MEAN_ANOMALY   = 228.0895

EPHEMERIS_TYPE = 0
CLASSIFICATION_TYPE = U
NORAD_CAT_ID   = 67595
ELEMENT_SET_NO = 999
REV_AT_EPOCH   = 287
BSTAR          = -.84750935E-3
MEAN_MOTION_DOT = -.160084E-2
MEAN_MOTION_DDOT = 0

CCSDS_OMM_VERS = 2.0
CREATION_DATE  = 
ORIGINATOR     = 

OBJECT_NAME    = STARLINK-36629
OBJECT_ID      = 2026-018H
CENTER_NAME    = EARTH
REF_FRAME      = TEME
TIME_SYSTEM    = UTC
MEAN_ELEMENT_THEORY = SGP/SGP4

EPOCH          = 2026-02-09T22:00:03.000096
MEAN_MOTION    = 15.81022423
ECCENTRICITY   = .00017167
INCLINATION    = 97.2786
RA_OF_ASC_NODE = 105.2967
ARG_OF_PERICENTER = 90.3944
MEAN_ANOMALY   = 211.9049

EPHEMERIS_TYPE = 0
CLASSIFICATION_TYPE = U
NORAD_CAT_ID   = 67596
ELEMENT_SET_NO = 999
REV_AT_EPOCH   = 287
BSTAR          = -.18357413E-2
MEAN_MOTION_DOT = -.341631E-2
MEAN_MOTION_DDOT = 0

CCSDS_OMM_VERS = 2.0
CREATION_DATE  = 
ORIGINATOR     = 

OBJECT_NAME    = STARLINK-36384
OBJECT_ID      = 2026-018J
CENTER_NAME    = EARTH
REF_FRAME      = TEME
TIME_SYSTEM    = UTC
MEAN_ELEMENT_THEORY = SGP/SGP4

EPOCH          = 2026-02-09T22:00:03.000096
MEAN_MOTION    = 15.81305715
ECCENTRICITY   = .00017228
INCLINATION    = 97.2786
RA_OF_ASC_NODE = 105.2992
ARG_OF_PERICENTER = 89.6956
MEAN_ANOMALY   = 218.6914

EPHEMERIS_TYPE = 0
CLASSIFICATION_TYPE = U
NORAD_CAT_ID   = 67597
ELEMENT_SET_NO = 999
REV_AT_EPOCH   = 293
BSTAR          = -.39244832E-2
MEAN_MOTION_DOT = -.709683E-2
MEAN_MOTION_DDOT = 0

CCSDS_OMM_VERS = 2.0
CREATION_DATE  = 
ORIGINATOR     = 

OBJECT_NAME    = STARLINK-36358
OBJECT_ID      = 2026-018K
CENTER_NAME    = EARTH
REF_FRAME      = TEME
TIME_SYSTEM    = UTC
MEAN_ELEMENT_THEORY = SGP/SGP4

EPOCH          = 2026-02-09T22:00:03.000096
MEAN_MOTION    = 15.81518733
ECCENTRICITY   = .00015664
INCLINATION    = 97.2783
RA_OF_ASC_NODE = 105.3003
ARG_OF_PERICENTER = 90.2308
MEAN_ANOMALY   = 222.3360

EPHEMERIS_TYPE = 0
CLASSIFICATION_TYPE = U
NORAD_CAT_ID   = 67598
ELEMENT_SET_NO = 999
REV_AT_EPOCH   = 292
BSTAR          = -.53168127E-2
MEAN_MOTION_DOT = -.944898E-2
MEAN_MOTION_DDOT = 0

CCSDS_OMM_VERS = 2.0
CREATION_DATE  = 
ORIGINATOR     = 

OBJECT_NAME    = STARLINK-36582
OBJECT_ID      = 2026-018L
CENTER_NAME    = EARTH
REF_FRAME      = TEME
TIME_SYSTEM    = UTC
MEAN_ELEMENT_THEORY = SGP/SGP4

EPOCH          = 2026-02-09T22:00:03.000096
MEAN_MOTION    = 15.81896057
ECCENTRICITY   = .0001313
INCLINATION    = 97.2786
RA_OF_ASC_NODE = 105.3036
ARG_OF_PERICENTER = 87.2332
MEAN_ANOMALY   = 231.8416

EPHEMERIS_TYPE = 0
CLASSIFICATION_TYPE = U
NORAD_CAT_ID   = 67599
ELEMENT_SET_NO = 999
REV_AT_EPOCH   = 298
BSTAR          = -.75846205E-2
MEAN_MOTION_DOT = -.1339892E-1
MEAN_MOTION_DDOT = 0

CCSDS_OMM_VERS = 2.0
CREATION_DATE  = 
ORIGINATOR     = 

OBJECT_NAME    = STARLINK-36640
OBJECT_ID      = 2026-018M
CENTER_NAME    = EARTH
REF_FRAME      = TEME
TIME_SYSTEM    = UTC
MEAN_ELEMENT_THEORY = SGP/SGP4

EPOCH          = 2026-02-09T22:00:03.000096
MEAN_MOTION    = 15.82487959
ECCENTRICITY   = .00014434
INCLINATION    = 97.2785
RA_OF_ASC_NODE = 105.3079
ARG_OF_PERICENTER = 75.0987
MEAN_ANOMALY   = 254.9364

EPHEMERIS_TYPE = 0
CLASSIFICATION_TYPE = U
NORAD_CAT_ID   = 67600
ELEMENT_SET_NO = 999
REV_AT_EPOCH   = 288
BSTAR          = -.99121062E-2
MEAN_MOTION_DOT = -.1768836E-1
MEAN_MOTION_DDOT = 0

